{"type": "FeatureCollection", "features": [ {"type": "Feature", "properties": {"norad_id": 40115, "name": "WORLDVIEW-3 (WV-3)", "group": "resource", "lat": 72.63092430497758, "lon": -91.38589980366369, "alt_km": 603.6770942374978, "timestamp": "2025-12-16T03:53:26.715992+00:00", "meta": {"OBJECT_NAME": "WORLDVIEW-3 (WV-3)", "OBJECT_ID": "2014-048A", "EPOCH": "2025-12-15T08:01:05.732832", "MEAN_MOTION": 14.85518093, "ECCENTRICITY": 0.00049801, "INCLINATION": 97.8615, "RA_OF_ASC_NODE": 61.5818, "ARG_OF_PERICENTER": 176.2974, "MEAN_ANOMALY": 183.8278, "EPHEMERIS_TYPE": 0, "CLASSIFICATION_TYPE": "U", "NORAD_CAT_ID": 40115, "ELEMENT_SET_NO": 999, "REV_AT_EPOCH": 61462, "BSTAR": 0.00014704993, "MEAN_MOTION_DOT": 1.216e-05, "MEAN_MOTION_DDOT": 0}, "tle": {"line1": "1 40115U 14048A   25349.33409413  .00001216  00000+0  14705-3 0  9997", "line2": "2 40115  97.8615  61.5818 0004980 176.2974 183.8278 14.85518093614625"}}, "geometry": {"type": "Point", "coordinates": [-91.38589980366369, 72.63092430497758]}}, {"type": "Feature", "properties": {"norad_id": 40118, "name": "GAOFEN-2", "group": "resource", "lat": -42.34732299271809, "lon": -138.06420379962762, "alt_km": 637.0245889913285, "timestamp": "2025-12-16T03:53:26.716003+00:00", "meta": {"OBJECT_NAME": "GAOFEN-2", "OBJECT_ID": "2014-049A", "EPOCH": "2025-12-15T09:02:49.843392", "MEAN_MOTION": 14.80614305, "ECCENTRICITY": 0.00086263, "INCLINATION": 98.0385, "RA_OF_ASC_NODE": 48.5499, "ARG_OF_PERICENTER": 105.4391, "MEAN_ANOMALY": 254.7774, "EPHEMERIS_TYPE": 0, "CLASSIFICATION_TYPE": "U", "NORAD_CAT_ID": 40118, "ELEMENT_SET_NO": 999, "REV_AT_EPOCH": 61203, "BSTAR": 8.6072375e-05, "MEAN_MOTION_DOT": 6.07e-06, "MEAN_MOTION_DDOT": 0}, "tle": {"line1": "1 40118U 14049A   25349.37696578  .00000607  00000+0  86072-4 0  9995", "line2": "2 40118  98.0385  48.5499 0008626 105.4391 254.7774 14.80614305612033"}}, "geometry": {"type": "Point", "coordinates": [-138.06420379962762, -42.34732299271809]}}, {"type": "Feature", "properties": {"norad_id": 40143, "name": "YAOGAN-21", "group": "resource", "lat": -4.167892563369859, "lon": 33.85240144758374, "alt_km": 492.8736403254552, "timestamp": "2025-12-16T03:53:26.716014+00:00", "meta": {"OBJECT_NAME": "YAOGAN-21", "OBJECT_ID": "2014-053A", "EPOCH": "2025-12-15T08:59:44.642400", "MEAN_MOTION": 15.2370919, "ECCENTRICITY": 0.00095385, "INCLINATION": 97.1762, "RA_OF_ASC_NODE": 32.5731, "ARG_OF_PERICENTER": 33.2581, "MEAN_ANOMALY": 326.9254, "EPHEMERIS_TYPE": 0, "CLASSIFICATION_TYPE": "U", "NORAD_CAT_ID": 40143, "ELEMENT_SET_NO": 999, "REV_AT_EPOCH": 62694, "BSTAR": 0.00014743089, "MEAN_MOTION_DOT": 3.476e-05, "MEAN_MOTION_DDOT": 0}, "tle": {"line1": "1 40143U 14053A   25349.37482225  .00003476  00000+0  14743-3 0  9992", "line2": "2 40143  97.1762  32.5731 0009538  33.2581 326.9254 15.23709190626949"}}, "geometry": {"type": "Point", "coordinates": [33.85240144758374, -4.167892563369859]}}, {"type": "Feature", "properties": {"norad_id": 40275, "name": "YAOGAN-22", "group": "resource", "lat": 28.901724795143988, "lon": -40.35510961457905, "alt_km": 1200.2391349717882, "timestamp": "2025-12-16T03:53:26.716024+00:00", "meta": {"OBJECT_NAME": "YAOGAN-22", "OBJECT_ID": "2014-063A", "EPOCH": "2025-12-15T08:52:31.988352", "MEAN_MOTION": 13.15522722, "ECCENTRICITY": 0.00059676, "INCLINATION": 100.7422, "RA_OF_ASC_NODE": 132.8264, "ARG_OF_PERICENTER": 241.765, "MEAN_ANOMALY": 118.2859, "EPHEMERIS_TYPE": 0, "CLASSIFICATION_TYPE": "U", "NORAD_CAT_ID": 40275, "ELEMENT_SET_NO": 999, "REV_AT_EPOCH": 53564, "BSTAR": 7.7072386e-05, "MEAN_MOTION_DOT": -1.8e-07, "MEAN_MOTION_DDOT": 0}, "tle": {"line1": "1 40275U 14063A   25349.36981468 -.00000018  00000+0  77072-4 0  9996", "line2": "2 40275 100.7422 132.8264 0005967 241.7650 118.2859 13.15522722535641"}}, "geometry": {"type": "Point", "coordinates": [-40.35510961457905, 28.901724795143988]}}, {"type": "Feature", "properties": {"norad_id": 40298, "name": "ASNARO", "group": "resource", "lat": -7.423443055709221, "lon": 66.99087803089309, "alt_km": 513.070248992768, "timestamp": "2025-12-16T03:53:26.716034+00:00", "meta": {"OBJECT_NAME": "ASNARO", "OBJECT_ID": "2014-070A", "EPOCH": "2025-12-15T08:57:31.345344", "MEAN_MOTION": 15.19558033, "ECCENTRICITY": 0.00056473, "INCLINATION": 97.3649, "RA_OF_ASC_NODE": 65.2557, "ARG_OF_PERICENTER": 115.1961, "MEAN_ANOMALY": 244.986, "EPHEMERIS_TYPE": 0, "CLASSIFICATION_TYPE": "U", "NORAD_CAT_ID": 40298, "ELEMENT_SET_NO": 999, "REV_AT_EPOCH": 61609, "BSTAR": 0.00041107059, "MEAN_MOTION_DOT": 8.681e-05, "MEAN_MOTION_DDOT": 0}, "tle": {"line1": "1 40298U 14070A   25349.37327946  .00008681  00000+0  41107-3 0  9997", "line2": "2 40298  97.3649  65.2557 0005647 115.1961 244.9860 15.19558033616094"}}, "geometry": {"type": "Point", "coordinates": [66.99087803089309, -7.423443055709221]}}, {"type": "Feature", "properties": {"norad_id": 40310, "name": "YAOGAN-24", "group": "resource", "lat": 27.61793793266784, "lon": -54.44279576638285, "alt_km": 630.7640449442752, "timestamp": "2025-12-16T03:53:26.716045+00:00", "meta": {"OBJECT_NAME": "YAOGAN-24", "OBJECT_ID": "2014-072A", "EPOCH": "2025-12-15T09:18:38.532672", "MEAN_MOTION": 14.76183426, "ECCENTRICITY": 0.00148513, "INCLINATION": 98.1215, "RA_OF_ASC_NODE": 120.4946, "ARG_OF_PERICENTER": 130.0471, "MEAN_ANOMALY": 230.2043, "EPHEMERIS_TYPE": 0, "CLASSIFICATION_TYPE": "U", "NORAD_CAT_ID": 40310, "ELEMENT_SET_NO": 999, "REV_AT_EPOCH": 59660, "BSTAR": 0.0001221853, "MEAN_MOTION_DOT": 7.93e-06, "MEAN_MOTION_DDOT": 0}, "tle": {"line1": "1 40310U 14072A   25349.38794598  .00000793  00000+0  12219-3 0  9994", "line2": "2 40310  98.1215 120.4946 0014851 130.0471 230.2043 14.76183426596609"}}, "geometry": {"type": "Point", "coordinates": [-54.44279576638285, 27.61793793266784]}}, {"type": "Feature", "properties": {"norad_id": 40336, "name": "CBERS 4", "group": "resource", "lat": 66.34296352922831, "lon": -112.39699658599301, "alt_km": 765.6563827993496, "timestamp": "2025-12-16T03:53:26.716056+00:00", "meta": {"OBJECT_NAME": "CBERS 4", "OBJECT_ID": "2014-079A", "EPOCH": "2025-12-15T08:58:08.163840", "MEAN_MOTION": 14.35518789, "ECCENTRICITY": 0.00016863, "INCLINATION": 98.3309, "RA_OF_ASC_NODE": 47.3004, "ARG_OF_PERICENTER": 109.5122, "MEAN_ANOMALY": 250.6247, "EPHEMERIS_TYPE": 0, "CLASSIFICATION_TYPE": "U", "NORAD_CAT_ID": 40336, "ELEMENT_SET_NO": 999, "REV_AT_EPOCH": 57758, "BSTAR": 5.2693324e-05, "MEAN_MOTION_DOT": 1.1e-06, "MEAN_MOTION_DDOT": 0}, "tle": {"line1": "1 40336U 14079A   25349.37370560  .00000110  00000+0  52693-4 0  9991", "line2": "2 40336  98.3309  47.3004 0001686 109.5122 250.6247 14.35518789577588"}}, "geometry": {"type": "Point", "coordinates": [-112.39699658599301, 66.34296352922831]}}, {"type": "Feature", "properties": {"norad_id": 40362, "name": "YAOGAN-26", "group": "resource", "lat": -80.39401941107445, "lon": 123.59853942571681, "alt_km": 456.8694999516438, "timestamp": "2025-12-16T03:53:26.716067+00:00", "meta": {"OBJECT_NAME": "YAOGAN-26", "OBJECT_ID": "2014-088A", "EPOCH": "2025-12-15T06:28:07.707360", "MEAN_MOTION": 15.39405319, "ECCENTRICITY": 0.00059124, "INCLINATION": 97.0643, "RA_OF_ASC_NODE": 349.8538, "ARG_OF_PERICENTER": 22.1831, "MEAN_ANOMALY": 337.967, "EPHEMERIS_TYPE": 0, "CLASSIFICATION_TYPE": "U", "NORAD_CAT_ID": 40362, "ELEMENT_SET_NO": 999, "REV_AT_EPOCH": 60933, "BSTAR": 0.00050378043, "MEAN_MOTION_DOT": 0.0001967, "MEAN_MOTION_DDOT": 0}, "tle": {"line1": "1 40362U 14088A   25349.26953365  .00019670  00000+0  50378-3 0  9996", "line2": "2 40362  97.0643 349.8538 0005912  22.1831 337.9670 15.39405319609336"}}, "geometry": {"type": "Point", "coordinates": [123.59853942571681, -80.39401941107445]}}, {"type": "Feature", "properties": {"norad_id": 40376, "name": "SMAP", "group": "resource", "lat": -61.642737163542385, "lon": 10.19307846629917, "alt_km": 690.2917701612905, "timestamp": "2025-12-16T03:53:26.716078+00:00", "meta": {"OBJECT_NAME": "SMAP", "OBJECT_ID": "2015-003A", "EPOCH": "2025-12-15T06:50:36.189312", "MEAN_MOTION": 14.63348205, "ECCENTRICITY": 0.00012133, "INCLINATION": 98.1291, "RA_OF_ASC_NODE": 353.9723, "ARG_OF_PERICENTER": 90.4786, "MEAN_ANOMALY": 269.6555, "EPHEMERIS_TYPE": 0, "CLASSIFICATION_TYPE": "U", "NORAD_CAT_ID": 40376, "ELEMENT_SET_NO": 999, "REV_AT_EPOCH": 58072, "BSTAR": 0.00012530521, "MEAN_MOTION_DOT": 6e-06, "MEAN_MOTION_DDOT": 0}, "tle": {"line1": "1 40376U 15003A   25349.28514108  .00000600  00000+0  12531-3 0  9991", "line2": "2 40376  98.1291 353.9723 0001213  90.4786 269.6555 14.63348205580721"}}, "geometry": {"type": "Point", "coordinates": [10.19307846629917, -61.642737163542385]}}, {"type": "Feature", "properties": {"norad_id": 40536, "name": "KOMPSAT-3A", "group": "resource", "lat": -78.46488031324223, "lon": 103.31686635870044, "alt_km": 444.2595234606997, "timestamp": "2025-12-16T03:53:26.716088+00:00", "meta": {"OBJECT_NAME": "KOMPSAT-3A", "OBJECT_ID": "2015-014A", "EPOCH": "2025-12-15T08:05:53.810304", "MEAN_MOTION": 15.44046453, "ECCENTRICITY": 0.00051198, "INCLINATION": 97.6784, "RA_OF_ASC_NODE": 323.8277, "ARG_OF_PERICENTER": 120.967, "MEAN_ANOMALY": 239.2081, "EPHEMERIS_TYPE": 0, "CLASSIFICATION_TYPE": "U", "NORAD_CAT_ID": 40536, "ELEMENT_SET_NO": 999, "REV_AT_EPOCH": 59335, "BSTAR": 0.00031820115, "MEAN_MOTION_DOT": 0.00014446, "MEAN_MOTION_DDOT": 0}, "tle": {"line1": "1 40536U 15014A   25349.33742836  .00014446  00000+0  31820-3 0  9993", "line2": "2 40536  97.6784 323.8277 0005119 120.9670 239.2081 15.44046453593350"}}, "geometry": {"type": "Point", "coordinates": [103.31686635870044, -78.46488031324223]}}]}